HIMAWARI-8              
1 40267U 14060A   24201.81443733 -.00000265  00000+0  00000+0 0  9994
2 40267   0.0405 202.3340 0001252 280.1277 249.5017  1.00270916 35766
